IRIDIUM 7 [-]           
1 24793U 97020B   24030.96747214  .00000500  00000+0  16845-3 0  9993
2 24793  86.3953  27.6834 0002135  83.4899 276.6540 14.35057450399705
IRIDIUM 5 [-]           
1 24795U 97020D   24030.85198203  .00003853  00000+0  37640-3 0  9991
2 24795  86.3954 314.0705 0127228 132.3387 228.8700 14.86091292410513
IRIDIUM 4 [-]           
1 24796U 97020E   24030.92341183  .00000526  00000+0  17457-3 0  9995
2 24796  86.3952  24.9145 0002343  87.5974 272.5491 14.35968811400224
IRIDIUM 914 [-]         
1 24836U 97030A   24030.55863246  .00000697  00000+0  21596-3 0  9997
2 24836  86.3918  35.1441 0004103  86.5829 273.5840 14.39804587396730
IRIDIUM 16 [-]          
1 24841U 97030F   24030.60951304  .00000558  00000+0  17918-3 0  9991
2 24841  86.3996  56.7517 0000380  24.1764 335.9452 14.37688878394623
IRIDIUM 911 [-]         
1 24842U 97030G   24030.59969035  .00000785  00000+0  21346-3 0  9992
2 24842  86.4423  55.9987 0013554 344.7711  15.3082 14.46263747402264
IRIDIUM 17 [-]          
1 24870U 97034B   24030.69999946  .00000572  00000+0  18723-3 0  9991
2 24870  86.3927  86.3710 0001741 141.9648 218.1672 14.36786498391263
IRIDIUM 920 [-]         
1 24871U 97034C   24030.57995272  .00000582  00000+0  17675-3 0  9993
2 24871  86.3934  66.8088 0009793 309.7635  50.2701 14.40507533394052
